HIMAWARI-8              
1 40267U 14060A   24101.54146632 -.00000283  00000+0  00000+0 0  9991
2 40267   0.0285 159.7785 0000832 247.3853 127.6589  1.00271045 34761
